{
  "type": "FeatureCollection",
  "features": [
    {
      "type": "Feature",
      "properties": {
        "norad_id": 66862,
        "name": "STARLINK-35974",
        "group": "last-30-days",
        "lat": -0.9227974413470321,
        "lon": -105.39941364372385,
        "alt_km": 348.54091730196524,
        "timestamp": "2025-12-20T16:47:35.024748+00:00",
        "meta_object_name": "STARLINK-35974",
        "meta_object_id": "2025-281Q",
        "meta_epoch": "2025-12-20T12:00:02.000160",
        "meta_mean_motion": 15.74510636,
        "meta_eccentricity": 0.0001154,
        "meta_inclination": 43.0004,
        "meta_ra_of_asc_node": 74.8202,
        "meta_arg_of_pericenter": 285.1861,
        "meta_mean_anomaly": 203.1444,
        "meta_ephemeris_type": 0,
        "meta_classification_type": "U",
        "meta_norad_cat_id": 66862,
        "meta_element_set_no": 999,
        "meta_rev_at_epoch": 254,
        "meta_bstar": -0.014651,
        "meta_mean_motion_dot": -0.01910179,
        "meta_mean_motion_ddot": 0,
        "tle_line1": "1 66862U 25281Q   25354.50002315 -.01910179  00000+0 -14651-1 0  9998",
        "tle_line2": "2 66862  43.0004  74.8202 0001154 285.1861 203.1444 15.74510636  2543"
      },
      "geometry": {
        "type": "Point",
        "coordinates": [
          -105.39941364372385,
          -0.9227974413470321
        ]
      }
    },
    {
      "type": "Feature",
      "properties": {
        "norad_id": 66863,
        "name": "STARLINK-36134",
        "group": "last-30-days",
        "lat": -3.53397350776096,
        "lon": -102.6001948917274,
        "alt_km": 348.88465173758414,
        "timestamp": "2025-12-20T16:47:35.024759+00:00",
        "meta_object_name": "STARLINK-36134",
        "meta_object_id": "2025-281R",
        "meta_epoch": "2025-12-20T12:00:02.000160",
        "meta_mean_motion": 15.74509345,
        "meta_eccentricity": 0.0001289,
        "meta_inclination": 43.0004,
        "meta_ra_of_asc_node": 74.8098,
        "meta_arg_of_pericenter": 287.8852,
        "meta_mean_anomaly": 204.2818,
        "meta_ephemeris_type": 0,
        "meta_classification_type": "U",
        "meta_norad_cat_id": 66863,
        "meta_element_set_no": 999,
        "meta_rev_at_epoch": 264,
        "meta_bstar": -0.014659,
        "meta_mean_motion_dot": -0.01911165,
        "meta_mean_motion_ddot": 0,
        "tle_line1": "1 66863U 25281R   25354.50002315 -.01911165  00000+0 -14659-1 0  9993",
        "tle_line2": "2 66863  43.0004  74.8098 0001289 287.8852 204.2818 15.74509345  2648"
      },
      "geometry": {
        "type": "Point",
        "coordinates": [
          -102.6001948917274,
          -3.53397350776096
        ]
      }
    },
    {
      "type": "Feature",
      "properties": {
        "norad_id": 66864,
        "name": "STARLINK-36070",
        "group": "last-30-days",
        "lat": -4.837849221151541,
        "lon": -101.19423858925254,
        "alt_km": 348.9983450988984,
        "timestamp": "2025-12-20T16:47:35.024769+00:00",
        "meta_object_name": "STARLINK-36070",
        "meta_object_id": "2025-281S",
        "meta_epoch": "2025-12-20T12:00:02.000160",
        "meta_mean_motion": 15.74509688,
        "meta_eccentricity": 0.0001013,
        "meta_inclination": 43.0006,
        "meta_ra_of_asc_node": 74.8046,
        "meta_arg_of_pericenter": 289.9691,
        "meta_mean_anomaly": 204.1128,
        "meta_ephemeris_type": 0,
        "meta_classification_type": "U",
        "meta_norad_cat_id": 66864,
        "meta_element_set_no": 999,
        "meta_rev_at_epoch": 267,
        "meta_bstar": -0.014643,
        "meta_mean_motion_dot": -0.01909179,
        "meta_mean_motion_ddot": 0,
        "tle_line1": "1 66864U 25281S   25354.50002315 -.01909179  00000+0 -14643-1 0  9999",
        "tle_line2": "2 66864  43.0006  74.8046 0001013 289.9691 204.1128 15.74509688  2679"
      },
      "geometry": {
        "type": "Point",
        "coordinates": [
          -101.19423858925254,
          -4.837849221151541
        ]
      }
    },
    {
      "type": "Feature",
      "properties": {
        "norad_id": 66865,
        "name": "STARLINK-36117",
        "group": "last-30-days",
        "lat": -7.433072635861903,
        "lon": -98.36612710817536,
        "alt_km": 349.05225248636634,
        "timestamp": "2025-12-20T16:47:35.024778+00:00",
        "meta_object_name": "STARLINK-36117",
        "meta_object_id": "2025-281T",
        "meta_epoch": "2025-12-20T12:00:02.000160",
        "meta_mean_motion": 15.74518591,
        "meta_eccentricity": 0.0001234,
        "meta_inclination": 43.0007,
        "meta_ra_of_asc_node": 74.7958,
        "meta_arg_of_pericenter": 277.9027,
        "meta_mean_anomaly": 220.0114,
        "meta_ephemeris_type": 0,
        "meta_classification_type": "U",
        "meta_norad_cat_id": 66865,
        "meta_element_set_no": 999,
        "meta_rev_at_epoch": 264,
        "meta_bstar": -0.014743,
        "meta_mean_motion_dot": -0.01921261,
        "meta_mean_motion_ddot": 0,
        "tle_line1": "1 66865U 25281T   25354.50002315 -.01921261  00000+0 -14743-1 0  9997",
        "tle_line2": "2 66865  43.0007  74.7958 0001234 277.9027 220.0114 15.74518591  2649"
      },
      "geometry": {
        "type": "Point",
        "coordinates": [
          -98.36612710817536,
          -7.433072635861903
        ]
      }
    },
    {
      "type": "Feature",
      "properties": {
        "norad_id": 66866,
        "name": "STARLINK-36126",
        "group": "last-30-days",
        "lat": -8.725877743961567,
        "lon": -96.93919732344219,
        "alt_km": 349.2523824161217,
        "timestamp": "2025-12-20T16:47:35.024788+00:00",
        "meta_object_name": "STARLINK-36126",
        "meta_object_id": "2025-281U",
        "meta_epoch": "2025-12-20T12:00:02.000160",
        "meta_mean_motion": 15.74510646,
        "meta_eccentricity": 9.79e-05,
        "meta_inclination": 43.0007,
        "meta_ra_of_asc_node": 74.7906,
        "meta_arg_of_pericenter": 276.348,
        "meta_mean_anomaly": 223.486,
        "meta_ephemeris_type": 0,
        "meta_classification_type": "U",
        "meta_norad_cat_id": 66866,
        "meta_element_set_no": 999,
        "meta_rev_at_epoch": 267,
        "meta_bstar": -0.014645,
        "meta_mean_motion_dot": -0.01909362,
        "meta_mean_motion_ddot": 0,
        "tle_line1": "1 66866U 25281U   25354.50002315 -.01909362  00000+0 -14645-1 0  9997",
        "tle_line2": "2 66866  43.0007  74.7906 0000979 276.3480 223.4860 15.74510646  2675"
      },
      "geometry": {
        "type": "Point",
        "coordinates": [
          -96.93919732344219,
          -8.725877743961567
        ]
      }
    },
    {
      "type": "Feature",
      "properties": {
        "norad_id": 66867,
        "name": "STARLINK-36101",
        "group": "last-30-days",
        "lat": -10.009894767287982,
        "lon": -95.50497752978869,
        "alt_km": 349.54157010196013,
        "timestamp": "2025-12-20T16:47:35.024798+00:00",
        "meta_object_name": "STARLINK-36101",
        "meta_object_id": "2025-281V",
        "meta_epoch": "2025-12-20T12:00:02.000160",
        "meta_mean_motion": 15.74507282,
        "meta_eccentricity": 0.0001108,
        "meta_inclination": 43.0005,
        "meta_ra_of_asc_node": 74.7865,
        "meta_arg_of_pericenter": 292.5779,
        "meta_mean_anomaly": 209.1734,
        "meta_ephemeris_type": 0,
        "meta_classification_type": "U",
        "meta_norad_cat_id": 66867,
        "meta_element_set_no": 999,
        "meta_rev_at_epoch": 248,
        "meta_bstar": -0.014625,
        "meta_mean_motion_dot": -0.01906995,
        "meta_mean_motion_ddot": 0,
        "tle_line1": "1 66867U 25281V   25354.50002315 -.01906995  00000+0 -14625-1 0  9995",
        "tle_line2": "2 66867  43.0005  74.7865 0001108 292.5779 209.1734 15.74507282  2486"
      },
      "geometry": {
        "type": "Point",
        "coordinates": [
          -95.50497752978869,
          -10.009894767287982
        ]
      }
    },
    {
      "type": "Feature",
      "properties": {
        "norad_id": 66868,
        "name": "STARLINK-36108",
        "group": "last-30-days",
        "lat": -11.290784332185849,
        "lon": -94.05704719938201,
        "alt_km": 349.54424501642643,
        "timestamp": "2025-12-20T16:47:35.024808+00:00",
        "meta_object_name": "STARLINK-36108",
        "meta_object_id": "2025-281W",
        "meta_epoch": "2025-12-20T12:00:02.000160",
        "meta_mean_motion": 15.74509643,
        "meta_eccentricity": 0.0001061,
        "meta_inclination": 43.0004,
        "meta_ra_of_asc_node": 74.7812,
        "meta_arg_of_pericenter": 286.3369,
        "meta_mean_anomaly": 217.3321,
        "meta_ephemeris_type": 0,
        "meta_classification_type": "U",
        "meta_norad_cat_id": 66868,
        "meta_element_set_no": 999,
        "meta_rev_at_epoch": 248,
        "meta_bstar": -0.014655,
        "meta_mean_motion_dot": -0.01910494,
        "meta_mean_motion_ddot": 0,
        "tle_line1": "1 66868U 25281W   25354.50002315 -.01910494  00000+0 -14655-1 0  9998",
        "tle_line2": "2 66868  43.0004  74.7812 0001061 286.3369 217.3321 15.74509643  2488"
      },
      "geometry": {
        "type": "Point",
        "coordinates": [
          -94.05704719938201,
          -11.290784332185849
        ]
      }
    }
  ]
}